{
    "links": {
        "self": "http://www.neowsapp.com/rest/v1/neo/54016364?api_key=iIulBulltgU6a56xZRHN4H3l9WmuAYTsLGpBGhQ2"
    },
    "id": "54016364",
    "neo_reference_id": "54016364",
    "name": "(2020 FZ4)",
    "designation": "2020 FZ4",
    "nasa_jpl_url": "http://ssd.jpl.nasa.gov/sbdb.cgi?sstr=54016364",
    "absolute_magnitude_h": 23.502,
    "estimated_diameter": {
        "kilometers": {
            "estimated_diameter_min": 0.0529852486,
            "estimated_diameter_max": 0.1184786177
        },
        "meters": {
            "estimated_diameter_min": 52.9852486337,
            "estimated_diameter_max": 118.4786177497
        },
        "miles": {
            "estimated_diameter_min": 0.0329234969,
            "estimated_diameter_max": 0.0736191772
        },
        "feet": {
            "estimated_diameter_min": 173.8361231275,
            "estimated_diameter_max": 388.709388258
        }
    },
    "is_potentially_hazardous_asteroid": false,
    "close_approach_data": [
        {
            "close_approach_date": "2017-03-12",
            "close_approach_date_full": "2017-Mar-12 14:37",
            "epoch_date_close_approach": 1489329420000,
            "relative_velocity": {
                "kilometers_per_second": "8.5446161132",
                "kilometers_per_hour": "30760.6180073626",
                "miles_per_hour": "19113.4517835193"
            },
            "miss_distance": {
                "astronomical": "0.1945164628",
                "lunar": "75.6669040292",
                "kilometers": "29099248.514814236",
                "miles": "18081434.5798430168"
            },
            "orbiting_body": "Earth"
        },
        {
            "close_approach_date": "2020-03-07",
            "close_approach_date_full": "2020-Mar-07 12:36",
            "epoch_date_close_approach": 1583584560000,
            "relative_velocity": {
                "kilometers_per_second": "8.7198214801",
                "kilometers_per_hour": "31391.3573283649",
                "miles_per_hour": "19505.3686688387"
            },
            "miss_distance": {
                "astronomical": "0.1751191651",
                "lunar": "68.1213552239",
                "kilometers": "26197454.095138337",
                "miles": "16278343.1379175706"
            },
            "orbiting_body": "Earth"
        },
        {
            "close_approach_date": "2023-03-04",
            "close_approach_date_full": "2023-Mar-04 03:23",
            "epoch_date_close_approach": 1677900180000,
            "relative_velocity": {
                "kilometers_per_second": "9.1167702799",
                "kilometers_per_hour": "32820.3730075072",
                "miles_per_hour": "20393.3034390258"
            },
            "miss_distance": {
                "astronomical": "0.190003051",
                "lunar": "73.911186839",
                "kilometers": "28424051.72310137",
                "miles": "17661886.748164106"
            },
            "orbiting_body": "Earth"
        }
    ],
    "orbital_data": {
        "orbit_id": "1",
        "orbit_determination_date": "2020-03-25 16:42:06",
        "first_observation_date": "2020-03-22",
        "last_observation_date": "2020-03-25",
        "data_arc_in_days": 3,
        "observations_used": 19,
        "orbit_uncertainty": "8",
        "minimum_orbit_intersection": ".174951",
        "jupiter_tisserand_invariant": "4.911",
        "epoch_osculation": "2458931.5",
        "eccentricity": ".1531377491608471",
        "semi_major_axis": "1.314552662260883",
        "inclination": "16.52068009814574",
        "ascending_node_longitude": "176.710458840887",
        "orbital_period": "550.5102511350021",
        "perihelion_distance": "1.113245026408852",
        "perihelion_argument": "304.5060545620643",
        "aphelion_distance": "1.515860298112914",
        "perihelion_time": "2458863.912882419317",
        "mean_anomaly": "44.19783696830575",
        "mean_motion": ".6539387763584384",
        "equinox": "J2000",
        "orbit_class": {
            "orbit_class_type": "AMO",
            "orbit_class_description": "Near-Earth asteroid orbits similar to that of 1221 Amor",
            "orbit_class_range": "1.017 AU < q (perihelion) < 1.3 AU"
        }
    },
    "is_sentry_object": false
}